IRIDIUM 166             
1 43570U 18061B   24357.33317179  .00000508  00000+0  17423-3 0  9992
2 43570  86.3965 283.1557 0001879  87.0709 273.0702 14.34215920335738
IRIDIUM 158             
1 43571U 18061C   24357.23169427  .00000085  00000+0  23232-4 0  9999
2 43571  86.3964 283.2077 0002038  78.0296 282.1128 14.34218007335681
IRIDIUM 165             
1 43572U 18061D   24357.32683411  .00000077  00000+0  20496-4 0  9994
2 43572  86.3967 283.2040 0002244  87.1569 272.9884 14.34218074335723
IRIDIUM 155             
1 43573U 18061E   24357.35853561  .00000601  00000+0  20752-3 0  9990
2 43573  86.3962 283.0871 0001797  78.7297 281.4100 14.34210529335694
IRIDIUM 154             
1 43574U 18061F   24357.26974274  .00000646  00000+0  22366-3 0  9998
2 43574  86.3966 283.2305 0002183  83.6647 276.4797 14.34215813335739
IRIDIUM 163             
1 43575U 18061G   24357.32048521  .00000070  00000+0  17956-4 0  9994
2 43575  86.3967 283.1419 0001969  81.6623 278.4796 14.34220754335718
IRIDIUM 156             
1 43576U 18061H   24357.29512661  .00000627  00000+0  21692-3 0  9991
2 43576  86.3963 283.1591 0001822  85.6911 274.4493 14.34219657335707
IRIDIUM 164             
1 43577U 18061J   24357.34585933  .00000559  00000+0  19260-3 0  9992
2 43577  86.3965 283.1695 0002246  90.7858 269.3595 14.34217286335750
